{\rtf1\ansi\ansicpg1252\cocoartf2867
\cocoatextscaling0\cocoaplatform0{\fonttbl\f0\fswiss\fcharset0 Helvetica;}
{\colortbl;\red255\green255\blue255;}
{\*\expandedcolortbl;;}
\paperw11900\paperh16840\margl1440\margr1440\vieww11520\viewh8400\viewkind0
\pard\tx720\tx1440\tx2160\tx2880\tx3600\tx4320\tx5040\tx5760\tx6480\tx7200\tx7920\tx8640\pardirnatural\partightenfactor0

\f0\fs24 \cf0 <?xml version="1.0" encoding="UTF-8"?>\
<kml xmlns="http://www.opengis.net/kml/2.2">\
  <Document>\
    <name>Ruta 1 - Carretera Austral y Lagos (Ushuaia a SMA)</name>\
    <description>Ruta de aventura combinando Tierra del Fuego, tramo de la Carretera Austral (Chile) y PN Los Alerces / 7 Lagos (Argentina).</description>\
    <Placemark>\
      <name>Ushuaia (Inicio)</name>\
      <Point><coordinates>-68.3030,-54.8019,0</coordinates></Point>\
    </Placemark>\
    <Placemark>\
      <name>Punta Arenas</name>\
      <Point><coordinates>-70.9171,-53.1638,0</coordinates></Point>\
    </Placemark>\
    <Placemark>\
      <name>Puerto Natales</name>\
      <Point><coordinates>-72.5060,-51.7269,0</coordinates></Point>\
    </Placemark>\
    <Placemark>\
      <name>El Calafate</name>\
      <Point><coordinates>-72.2648,-50.3379,0</coordinates></Point>\
    </Placemark>\
    <Placemark>\
      <name>Chile Chico / Lago General Carrera</name>\
      <Point><coordinates>-71.7228,-46.5412,0</coordinates></Point>\
    </Placemark>\
    <Placemark>\
      <name>Coyhaique (Carretera Austral)</name>\
      <Point><coordinates>-72.0662,-45.5712,0</coordinates></Point>\
    </Placemark>\
    <Placemark>\
      <name>Futaleuf\'fa / Trevelin</name>\
      <Point><coordinates>-71.8610,-43.1843,0</coordinates></Point>\
    </Placemark>\
    <Placemark>\
      <name>San Mart\'edn de los Andes (Fin)</name>\
      <Point><coordinates>-71.3534,-40.1579,0</coordinates></Point>\
    </Placemark>\
    <Placemark>\
      <name>Trazado Ruta 1</name>\
      <LineString>\
        <tessellate>1</tessellate>\
        <coordinates>\
          -68.3030,-54.8019,0\
          -67.7000,-53.7833,0\
          -68.5000,-52.7000,0\
          -69.5000,-52.5000,0\
          -70.9171,-53.1638,0\
          -72.5060,-51.7269,0\
          -72.2648,-50.3379,0\
          -71.0000,-48.0000,0\
          -71.7228,-46.5412,0\
          -72.0662,-45.5712,0\
          -71.8610,-43.1843,0\
          -71.4833,-42.9000,0\
          -71.5167,-41.9667,0\
          -71.3083,-41.1333,0\
          -71.3534,-40.1579,0\
        </coordinates>\
      </LineString>\
    </Placemark>\
  </Document>\
</kml>}