{\rtf1\ansi\ansicpg1252\cocoartf2867
\cocoatextscaling0\cocoaplatform0{\fonttbl\f0\fswiss\fcharset0 Helvetica;}
{\colortbl;\red255\green255\blue255;}
{\*\expandedcolortbl;;}
\paperw11900\paperh16840\margl1440\margr1440\vieww11520\viewh8400\viewkind0
\pard\tx720\tx1440\tx2160\tx2880\tx3600\tx4320\tx5040\tx5760\tx6480\tx7200\tx7920\tx8640\pardirnatural\partightenfactor0

\f0\fs24 \cf0 <?xml version="1.0" encoding="UTF-8"?>\
<gpx version="1.1" creator="MotoAventuraPatagonia" xmlns="http://www.topografix.com/GPX/1/1">\
  <metadata>\
    <name>Ruta 1 - Carretera Austral y Lagos (Ushuaia a SMA)</name>\
    <desc>Ruta de aventura combinando Tierra del Fuego, Carretera Austral y PN Los Alerces.</desc>\
  </metadata>\
  <wpt lat="-54.8019" lon="-68.3030">\
    <name>Ushuaia (Inicio)</name>\
  </wpt>\
  <wpt lat="-53.1638" lon="-70.9171">\
    <name>Punta Arenas</name>\
  </wpt>\
  <wpt lat="-51.7269" lon="-72.5060">\
    <name>Puerto Natales</name>\
  </wpt>\
  <wpt lat="-50.3379" lon="-72.2648">\
    <name>El Calafate</name>\
  </wpt>\
  <wpt lat="-46.5412" lon="-71.7228">\
    <name>Chile Chico</name>\
  </wpt>\
  <wpt lat="-45.5712" lon="-72.0662">\
    <name>Coyhaique</name>\
  </wpt>\
  <wpt lat="-43.1843" lon="-71.8610">\
    <name>Futaleuf\'fa / Trevelin</name>\
  </wpt>\
  <wpt lat="-40.1579" lon="-71.3534">\
    <name>San Mart\'edn de los Andes (Fin)</name>\
  </wpt>\
  <trk>\
    <name>Trazado Ruta 1 GPX</name>\
    <trkseg>\
      <trkpt lat="-54.8019" lon="-68.3030"/>\
      <trkpt lat="-53.7833" lon="-67.7000"/>\
      <trkpt lat="-52.7000" lon="-68.5000"/>\
      <trkpt lat="-52.5000" lon="-69.5000"/>\
      <trkpt lat="-53.1638" lon="-70.9171"/>\
      <trkpt lat="-51.7269" lon="-72.5060"/>\
      <trkpt lat="-50.3379" lon="-72.2648"/>\
      <trkpt lat="-48.0000" lon="-71.0000"/>\
      <trkpt lat="-46.5412" lon="-71.7228"/>\
      <trkpt lat="-45.5712" lon="-72.0662"/>\
      <trkpt lat="-43.1843" lon="-71.8610"/>\
      <trkpt lat="-42.9000" lon="-71.4833"/>\
      <trkpt lat="-41.9667" lon="-71.5167"/>\
      <trkpt lat="-41.1333" lon="-71.3083"/>\
      <trkpt lat="-40.1579" lon="-71.3534"/>\
    </trkseg>\
  </trk>\
</gpx>}